0 NAVSTAR 50 (USA 156)
1 26690U 01004A   18025.59597892 +.00000019 +00000-0 +00000-0 0  9998
2 26690 053.0821 148.5337 0186599 259.4555 193.6374 02.00565532124488
0 NAVSTAR 50 (USA 156)
1 26690U 01004A   18026.55151796  .00000008  00000-0  00000+0 0  9991
2 26690  53.0823 148.4937 0186649 259.4717 163.5829  2.00565499124495
0 NAVSTAR 50 (USA 156)
1 26690U 01004A   18026.90257326 +.00000004 +00000-0 +00000-0 0  9993
2 26690 053.0823 148.4790 0186665 259.4784 057.0611 02.00565490124503
0 NAVSTAR 50 (USA 156)
1 26690U 01004A   18027.43891972 -.00000002  00000-0  00000+0 0  9991
2 26690  53.0824 148.4565 0186691 259.4872  84.3296  2.00565476124518
0 NAVSTAR 50 (USA 156)
1 26690U 01004A   18027.55527497 -.00000004 +00000-0 +00000-0 0  9995
2 26690 053.0824 148.4517 0186699 259.4887 168.3442 02.00565471124521
0 NAVSTAR 50 (USA 156)
1 26690U 01004A   18027.84958035 -.00000007 +00000-0 +00000-0 0  9996
2 26690 053.0825 148.4394 0186710 259.4946 020.8460 02.00565465124520
0 NAVSTAR 50 (USA 156)
1 26690U 01004A   18028.49534723 -.00000013  00000-0  00000+0 0  9998
2 26690  53.0826 148.4124 0186742 259.5043 127.1222  2.00565447124534
0 NAVSTAR 50 (USA 156)
1 26690U 01004A   18028.86643468 -.00000016 +00000-0 +00000-0 0  9990
2 26690 053.0827 148.3968 0186758 259.5109 035.0649 02.00565440124544
0 NAVSTAR 50 (USA 156)
1 26690U 01004A   18029.57071590 -.00000019  00000-0  00000+0 0  9992
2 26690  53.0828 148.3674 0186796 259.5215 183.5915  2.00565425124558
0 NAVSTAR 50 (USA 156)
1 26690U 01004A   18030.48554257 -.00000020  00000-0  00000+0 0  9992
2 26690  53.0830 148.3291 0186844 259.5360 124.1414  2.00565410124572
0 NAVSTAR 50 (USA 156)
1 26690U 01004A   18030.59533753 -.00000020 +00000-0 +00000-0 0  9993
2 26690 053.0830 148.3245 0186853 259.5381 203.4184 02.00565407124586
0 NAVSTAR 50 (USA 156)
1 26690U 01004A   18031.47304052 -.00000018  00000-0  00000+0 0  9995
2 26690  53.0832 148.2878 0186900 259.5522 117.1630  2.00565397124595
0 NAVSTAR 50 (USA 156)
1 26690U 01004A   18031.53585823 -.00000017 +00000-0 +00000-0 0  9999
2 26690 053.0832 148.2852 0186905 259.5532 162.5204 02.00565395124604
